LEMUR-1                 
1 40044U 14033AL  25067.99875259  .00005731  00000+0  70952-3 0  9998
2 40044  97.7255 225.8707 0051818 161.7427 198.5662 14.82138814576882
LEMUR-2-GREENBERG       
1 42837U 17042N   25067.56271805  .00017862  00000+0  95991-3 0  9991
2 42837  97.3652 251.7276 0012169 199.7472 160.3291 15.14886342417529
LEMUR-2-ANDIS           
1 42838U 17042P   25067.49468552  .00016986  00000+0  90589-3 0  9995
2 42838  97.3607 251.2650 0013350 207.4821 152.5707 15.15154723417504
LEMUR-2-MONSON          
1 42839U 17042Q   25068.03210629  .00017415  00000+0  99551-3 0  9993
2 42839  97.3960 252.2921 0009151 184.7515 175.3631 15.12712273417494
LEMUR-2-FURIAUS         
1 42840U 17042R   25068.09261009  .00020181  00000+0  11316-2 0  9995
2 42840  97.3650 251.4747 0010673 251.8169 108.1900 15.13359878417505
LEMUR-2-PETERG          
1 42841U 17042S   25068.12381122  .00019745  00000+0  10651-2 0  9994
2 42841  97.3937 254.6406 0005388 178.8988 181.2257 15.14781960417616
LEMUR-2-DEMBITZ         
1 42842U 17042T   25068.09126246  .00016764  00000+0  93108-3 0  9992
2 42842  97.3769 253.6300 0009399 206.0834 153.9926 15.13752060417619
LEMUR-2-ZACHARY         
1 42845U 17042W   25068.07704908  .00028547  00000+0  13074-2 0  9995
2 42845  97.3731 256.1945 0005760 240.4559 119.6102 15.20434149417931
LEMUR-2-JIN-LUEN        
1 43182U 18014C   25067.81802622  .00034339  00000+0  12154-2 0  9997
2 43182  97.5660 337.9510 0010691 140.0604 220.1424 15.29012077388944
LEMUR-2-URAMCHANSOL     
1 43183U 18014D   25067.72173904  .00132269  00000+0  21789-2 0  9997
2 43183  97.5514 343.2717 0011840 111.9689 248.2822 15.51775654389282
LEMUR-2-KADI            
1 43184U 18014E   25067.88702126  .00031640  00000+0  11122-2 0  9990
2 43184  97.5295 336.9076 0010408 117.6037 242.6261 15.29256994388993
LEMUR-2-THENICKMOLO     
1 43185U 18014F   25067.71484067  .00065562  00000+0  16630-2 0  9993
2 43185  97.5678 340.6610 0007584 109.8032 250.4031 15.39425277389125
LEMUR-2-REMY-COLTON     
1 43884U 18111J   25067.77879264  .00255154  00000+0  28366-2 0  9997
2 43884  97.6162 356.2224 0007856 115.1237 245.0836 15.62021419338441
LEMUR-2-GUSTAVO         
1 43885U 18111K   25067.75550835  .00164477  00000+0  19775-2 0  9997
2 43885  97.6123 354.7396 0010968 103.1055 257.1426 15.60235287340355
LEMUR-2-ZO              
1 43886U 18111L   25067.85938855  .00174090  00000+0  23683-2 0  9996
2 43886  97.6052 353.6228 0011430 110.9950 249.2528 15.56904197338354
LEMUR-2-NATALIEMURRAY   
1 43887U 18111M   25067.77173626  .00344349  00000+0  29928-2 0  9999
2 43887  97.6048 356.2276 0011758  95.5842 264.6759 15.67942072340427
LEMUR-2-SARAHBETTYBOO   
1 43888U 18111N   25067.80065431  .00944695  37097-3  32701-2 0  9991
2 43888  97.6367   2.8095 0014228 130.1061 230.1460 15.89355012340590
LEMUR-2-AMANDA-SVANTE   
1 48269U 21034B   25068.14909226  .00021938  00000+0  13178-2 0  9997
2 48269  97.6269 136.8567 0004553  90.8443 269.3308 15.10900794210348
LEMUR-2-SPECIAL-K       
1 48273U 21034F   25068.12904244  .00031899  00000+0  16874-2 0  9998
2 48273  97.6151 137.7249 0002126 142.2700 217.8681 15.15386382210430
LEMUR-2-EMBRIONOVIS     
1 56970U 23084AQ  25067.90067044  .00012260  00000+0  45542-3 0  9997
2 56970  97.5677 194.9187 0011707 160.3650 199.8042 15.27640136 96436
LEMUR-2-MANO            
1 57390U 23100E   25067.73075001  .00042110  00000+0  18821-2 0  9992
2 57390  99.4585 340.7467 0010540 139.3913 220.8104 15.21156209 90251
LEMUR-2-DEVERILL-M-T    
1 57391U 23100F   25067.72044007  .00028425  00000+0  14845-2 0  9999
2 57391  99.4392 338.1324 0011088 145.5675 214.6271 15.15833527 90189
LEMUR-2-BASS            
1 58259U 23174D   25067.75561003  .00017131  00000+0  62151-3 0  9993
2 58259  97.4224 145.4603 0009976  43.0940 317.1079 15.28352367 73957
LEMUR-2-DILIGHTFUL      
1 58260U 23174E   25068.19252129  .00145465  00000+0  21910-2 0  9999
2 58260  97.4226 151.4424 0004235 332.2535  27.8492 15.54286097 74348
LEMUR-2-GOOD-VIBES      
1 58263U 23174H   25067.74226003  .00104021  00000+0  15834-2 0  9995
2 58263  97.4093 150.4839 0003537 348.7906  11.3268 15.54147815 74297
LEMUR-2-SANITA-VETRA    
1 58267U 23174M   25067.77537069  .00113854  00000+0  17255-2 0  9992
2 58267  97.4169 150.6560 0003393 325.2136  34.8895 15.54233132 74309
LEMUR-2-MARAPAMASM      
1 58332U 23174CE  25068.18244650  .00303629  00000+0  19167-2 0  9997
2 58332  97.4100 155.5208 0006459 285.7863  74.2689 15.75747064 74668
LEMUR-2-THE-CLEANER     
1 58333U 23174CF  25067.77551564  .00143653  00000+0  17861-2 0  9995
2 58333  97.4169 152.0380 0005894 284.0009  76.0591 15.59468450 74396
LEMUR-2-JK0903EM1407    
1 58336U 23174CJ  25067.77189846  .00015814  00000+0  51496-3 0  9998
2 58336  97.4226 147.2290 0007039   0.0524   0.0717 15.31909838 74072
LEMUR-2-MJR092620       
1 58340U 23174CN  25067.72319188  .00013742  00000+0  44181-3 0  9993
2 58340  97.4288 147.8438 0007528   1.4710 358.6552 15.32348861 74084
